{"fetched_at":"2026-03-30T06:02:59Z","count":15439,"tles":[{"name":"STARLINK-34584","line1":"1 64697U 25142B   26087.91184489  .00002485  00000+0  21594-3 0  9995","line2":"2 64697  69.9999 265.8436 0002339 270.5867  89.5024 14.98336787 42360","category":"Starlink"}]}